{
    "links": {
        "self": "http://www.neowsapp.com/rest/v1/neo/3843886?api_key=iIulBulltgU6a56xZRHN4H3l9WmuAYTsLGpBGhQ2"
    },
    "id": "3843886",
    "neo_reference_id": "3843886",
    "name": "(2019 ST)",
    "designation": "2019 ST",
    "nasa_jpl_url": "http://ssd.jpl.nasa.gov/sbdb.cgi?sstr=3843886",
    "absolute_magnitude_h": 24.5,
    "estimated_diameter": {
        "kilometers": {
            "estimated_diameter_min": 0.0334622374,
            "estimated_diameter_max": 0.0748238376
        },
        "meters": {
            "estimated_diameter_min": 33.4622374455,
            "estimated_diameter_max": 74.8238376074
        },
        "miles": {
            "estimated_diameter_min": 0.0207924639,
            "estimated_diameter_max": 0.0464933628
        },
        "feet": {
            "estimated_diameter_min": 109.7842471007,
            "estimated_diameter_max": 245.4850393757
        }
    },
    "is_potentially_hazardous_asteroid": false,
    "close_approach_data": [
        {
            "close_approach_date": "2019-09-20",
            "close_approach_date_full": "2019-Sep-20 17:20",
            "epoch_date_close_approach": 1569000000000,
            "relative_velocity": {
                "kilometers_per_second": "12.9400750207",
                "kilometers_per_hour": "46584.2700746089",
                "miles_per_hour": "28945.6538138591"
            },
            "miss_distance": {
                "astronomical": "0.0141291741",
                "lunar": "5.4962487249",
                "kilometers": "2113694.350219167",
                "miles": "1313388.7665798246"
            },
            "orbiting_body": "Earth"
        }
    ],
    "orbital_data": {
        "orbit_id": "3",
        "orbit_determination_date": "2019-09-22 05:56:39",
        "first_observation_date": "2019-09-19",
        "last_observation_date": "2019-09-21",
        "data_arc_in_days": 2,
        "observations_used": 101,
        "orbit_uncertainty": "7",
        "minimum_orbit_intersection": ".0115579",
        "jupiter_tisserand_invariant": "4.101",
        "epoch_osculation": "2459000.5",
        "eccentricity": ".3948889685571224",
        "semi_major_axis": "1.662050521519929",
        "inclination": "20.9165463368346",
        "ascending_node_longitude": "177.6765203913565",
        "orbital_period": "782.6448976887648",
        "perihelion_distance": "1.005725105387097",
        "perihelion_argument": "194.7578986912906",
        "aphelion_distance": "2.318375937652761",
        "perihelion_time": "2458760.083241044158",
        "mean_anomaly": "110.5865935875832",
        "mean_motion": ".459978722231652",
        "equinox": "J2000",
        "orbit_class": {
            "orbit_class_type": "APO",
            "orbit_class_description": "Near-Earth asteroid orbits which cross the Earth’s orbit similar to that of 1862 Apollo",
            "orbit_class_range": "a (semi-major axis) > 1.0 AU; q (perihelion) < 1.017 AU"
        }
    },
    "is_sentry_object": false
}